CCSDS_OMM_VERS = 2.0
CREATION_DATE  = 
ORIGINATOR     = 

OBJECT_NAME    = STARLINK-36911
OBJECT_ID      = 2026-039Y
CENTER_NAME    = EARTH
REF_FRAME      = TEME
TIME_SYSTEM    = UTC
MEAN_ELEMENT_THEORY = SGP/SGP4

EPOCH          = 2026-03-13T22:00:01.999584
MEAN_MOTION    = 15.82353258
ECCENTRICITY   = .00012836
INCLINATION    = 42.9992
RA_OF_ASC_NODE = 28.7947
ARG_OF_PERICENTER = 276.3624
MEAN_ANOMALY   = 206.1183

EPHEMERIS_TYPE = 0
CLASSIFICATION_TYPE = U
NORAD_CAT_ID   = 68008
ELEMENT_SET_NO = 999
REV_AT_EPOCH   = 355
BSTAR          = -.86508739E-2
MEAN_MOTION_DOT = -.1615992E-1
MEAN_MOTION_DDOT = 0

CCSDS_OMM_VERS = 2.0
CREATION_DATE  = 
ORIGINATOR     = 

OBJECT_NAME    = STARLINK-36956
OBJECT_ID      = 2026-039Z
CENTER_NAME    = EARTH
REF_FRAME      = TEME
TIME_SYSTEM    = UTC
MEAN_ELEMENT_THEORY = SGP/SGP4

EPOCH          = 2026-03-13T22:00:01.999584
MEAN_MOTION    = 15.81425722
ECCENTRICITY   = .00015016
INCLINATION    = 42.9993
RA_OF_ASC_NODE = 28.7836
ARG_OF_PERICENTER = 253.1051
MEAN_ANOMALY   = 233.5069

EPHEMERIS_TYPE = 0
CLASSIFICATION_TYPE = U
NORAD_CAT_ID   = 68009
ELEMENT_SET_NO = 999
REV_AT_EPOCH   = 355
BSTAR          = -.10935351E-1
MEAN_MOTION_DOT = -.1947976E-1
MEAN_MOTION_DDOT = 0

CCSDS_OMM_VERS = 2.0
CREATION_DATE  = 
ORIGINATOR     = 

OBJECT_NAME    = STARLINK-36953
OBJECT_ID      = 2026-039AA
CENTER_NAME    = EARTH
REF_FRAME      = TEME
TIME_SYSTEM    = UTC
MEAN_ELEMENT_THEORY = SGP/SGP4

EPOCH          = 2026-03-13T22:00:01.999584
MEAN_MOTION    = 15.81961185
ECCENTRICITY   = .00015301
INCLINATION    = 42.9996
RA_OF_ASC_NODE = 28.7615
ARG_OF_PERICENTER = 270.4599
MEAN_ANOMALY   = 224.8771

EPHEMERIS_TYPE = 0
CLASSIFICATION_TYPE = U
NORAD_CAT_ID   = 68010
ELEMENT_SET_NO = 999
REV_AT_EPOCH   = 355
BSTAR          = .52785331E-3
MEAN_MOTION_DOT = .11177E-2
MEAN_MOTION_DDOT = 0

CCSDS_OMM_VERS = 2.0
CREATION_DATE  = 
ORIGINATOR     = 

OBJECT_NAME    = STARLINK-36991
OBJECT_ID      = 2026-039AB
CENTER_NAME    = EARTH
REF_FRAME      = TEME
TIME_SYSTEM    = UTC
MEAN_ELEMENT_THEORY = SGP/SGP4

EPOCH          = 2026-03-13T22:00:01.999584
MEAN_MOTION    = 15.70808773
ECCENTRICITY   = .00012067
INCLINATION    = 42.9992
RA_OF_ASC_NODE = 28.8860
ARG_OF_PERICENTER = 264.7335
MEAN_ANOMALY   = 180.5636

EPHEMERIS_TYPE = 0
CLASSIFICATION_TYPE = U
NORAD_CAT_ID   = 68011
ELEMENT_SET_NO = 999
REV_AT_EPOCH   = 355
BSTAR          = -.17339546E-1
MEAN_MOTION_DOT = -.1964241E-1
MEAN_MOTION_DDOT = 0

CCSDS_OMM_VERS = 2.0
CREATION_DATE  = 
ORIGINATOR     = 

OBJECT_NAME    = STARLINK-36936
OBJECT_ID      = 2026-039AC
CENTER_NAME    = EARTH
REF_FRAME      = TEME
TIME_SYSTEM    = UTC
MEAN_ELEMENT_THEORY = SGP/SGP4

EPOCH          = 2026-03-13T22:00:01.999584
MEAN_MOTION    = 15.81211409
ECCENTRICITY   = .00008777
INCLINATION    = 42.9994
RA_OF_ASC_NODE = 28.7293
ARG_OF_PERICENTER = 262.1344
MEAN_ANOMALY   = 245.7069

EPHEMERIS_TYPE = 0
CLASSIFICATION_TYPE = U
NORAD_CAT_ID   = 68012
ELEMENT_SET_NO = 999
REV_AT_EPOCH   = 355
BSTAR          = -.1110994E-1
MEAN_MOTION_DOT = -.1957055E-1
MEAN_MOTION_DDOT = 0

CCSDS_OMM_VERS = 2.0
CREATION_DATE  = 
ORIGINATOR     = 

OBJECT_NAME    = STARLINK-36967
OBJECT_ID      = 2026-039AD
CENTER_NAME    = EARTH
REF_FRAME      = TEME
TIME_SYSTEM    = UTC
MEAN_ELEMENT_THEORY = SGP/SGP4

EPOCH          = 2026-03-13T22:00:01.999584
MEAN_MOTION    = 15.72234910
ECCENTRICITY   = .00012176
INCLINATION    = 42.9989
RA_OF_ASC_NODE = 28.8749
ARG_OF_PERICENTER = 266.1363
MEAN_ANOMALY   = 183.4795

EPHEMERIS_TYPE = 0
CLASSIFICATION_TYPE = U
NORAD_CAT_ID   = 68013
ELEMENT_SET_NO = 999
REV_AT_EPOCH   = 355
BSTAR          = -.16397788E-1
MEAN_MOTION_DOT = -.1973143E-1
MEAN_MOTION_DDOT = 0

CCSDS_OMM_VERS = 2.0
CREATION_DATE  = 
ORIGINATOR     = 

OBJECT_NAME    = STARLINK-36985
OBJECT_ID      = 2026-039AE
CENTER_NAME    = EARTH
REF_FRAME      = TEME
TIME_SYSTEM    = UTC
MEAN_ELEMENT_THEORY = SGP/SGP4

EPOCH          = 2026-03-13T22:00:01.999584
MEAN_MOTION    = 15.81956728
ECCENTRICITY   = .00014785
INCLINATION    = 42.9995
RA_OF_ASC_NODE = 28.7406
ARG_OF_PERICENTER = 272.8734
MEAN_ANOMALY   = 231.0109

EPHEMERIS_TYPE = 0
CLASSIFICATION_TYPE = U
NORAD_CAT_ID   = 68014
ELEMENT_SET_NO = 999
REV_AT_EPOCH   = 355
BSTAR          = .44448521E-3
MEAN_MOTION_DOT = .93817E-3
MEAN_MOTION_DDOT = 0

CCSDS_OMM_VERS = 2.0
CREATION_DATE  = 
ORIGINATOR     = 

OBJECT_NAME    = STARLINK-36335
OBJECT_ID      = 2026-040A
CENTER_NAME    = EARTH
REF_FRAME      = TEME
TIME_SYSTEM    = UTC
MEAN_ELEMENT_THEORY = SGP/SGP4

EPOCH          = 2026-03-13T22:00:01.999584
MEAN_MOTION    = 15.95591004
ECCENTRICITY   = .00010742
INCLINATION    = 97.2721
RA_OF_ASC_NODE = 21.4598
ARG_OF_PERICENTER = 90.3607
MEAN_ANOMALY   = 248.5063

EPHEMERIS_TYPE = 0
CLASSIFICATION_TYPE = U
NORAD_CAT_ID   = 68015
ELEMENT_SET_NO = 999
REV_AT_EPOCH   = 305
BSTAR          = -.34827597E-2
MEAN_MOTION_DOT = -.137631E-1
MEAN_MOTION_DDOT = .56433752E-3

CCSDS_OMM_VERS = 2.0
CREATION_DATE  = 
ORIGINATOR     = 

OBJECT_NAME    = STARLINK-36923
OBJECT_ID      = 2026-040B
CENTER_NAME    = EARTH
REF_FRAME      = TEME
TIME_SYSTEM    = UTC
MEAN_ELEMENT_THEORY = SGP/SGP4

EPOCH          = 2026-03-13T22:00:01.999584
MEAN_MOTION    = 15.95721732
ECCENTRICITY   = .00010905
INCLINATION    = 97.2726
RA_OF_ASC_NODE = 21.4637
ARG_OF_PERICENTER = 74.8769
MEAN_ANOMALY   = 271.9278

EPHEMERIS_TYPE = 0
CLASSIFICATION_TYPE = U
NORAD_CAT_ID   = 68016
ELEMENT_SET_NO = 999
REV_AT_EPOCH   = 310
BSTAR          = -.34418333E-2
MEAN_MOTION_DOT = -.1369767E-1
MEAN_MOTION_DDOT = .56015526E-3

CCSDS_OMM_VERS = 2.0
CREATION_DATE  = 
ORIGINATOR     = 

OBJECT_NAME    = STARLINK-36568
OBJECT_ID      = 2026-040C
CENTER_NAME    = EARTH
REF_FRAME      = TEME
TIME_SYSTEM    = UTC
MEAN_ELEMENT_THEORY = SGP/SGP4

EPOCH          = 2026-03-13T22:00:01.999584
MEAN_MOTION    = 15.95793757
ECCENTRICITY   = .0001098
INCLINATION    = 97.2724
RA_OF_ASC_NODE = 21.4653
ARG_OF_PERICENTER = 74.6843
MEAN_ANOMALY   = 275.8444

EPHEMERIS_TYPE = 0
CLASSIFICATION_TYPE = U
NORAD_CAT_ID   = 68017
ELEMENT_SET_NO = 999
REV_AT_EPOCH   = 310
BSTAR          = -.3436059E-2
MEAN_MOTION_DOT = -.1372731E-1
MEAN_MOTION_DDOT = .56282624E-3

CCSDS_OMM_VERS = 2.0
CREATION_DATE  = 
ORIGINATOR     = 

OBJECT_NAME    = STARLINK-36930
OBJECT_ID      = 2026-040D
CENTER_NAME    = EARTH
REF_FRAME      = TEME
TIME_SYSTEM    = UTC
MEAN_ELEMENT_THEORY = SGP/SGP4

EPOCH          = 2026-03-13T22:00:01.999584
MEAN_MOTION    = 15.95647446
ECCENTRICITY   = .00010075
INCLINATION    = 97.2720
RA_OF_ASC_NODE = 21.4619
ARG_OF_PERICENTER = 75.6306
MEAN_ANOMALY   = 267.1932

EPHEMERIS_TYPE = 0
CLASSIFICATION_TYPE = U
NORAD_CAT_ID   = 68018
ELEMENT_SET_NO = 999
REV_AT_EPOCH   = 310
BSTAR          = -.34233148E-2
MEAN_MOTION_DOT = -.1357105E-1
MEAN_MOTION_DDOT = .55018166E-3

CCSDS_OMM_VERS = 2.0
CREATION_DATE  = 
ORIGINATOR     = 

OBJECT_NAME    = STARLINK-36921
OBJECT_ID      = 2026-040E
CENTER_NAME    = EARTH
REF_FRAME      = TEME
TIME_SYSTEM    = UTC
MEAN_ELEMENT_THEORY = SGP/SGP4

EPOCH          = 2026-03-13T22:00:01.999584
MEAN_MOTION    = 15.95938292
ECCENTRICITY   = .00010475
INCLINATION    = 97.2731
RA_OF_ASC_NODE = 21.4688
ARG_OF_PERICENTER = 74.7773
MEAN_ANOMALY   = 282.6719

EPHEMERIS_TYPE = 0
CLASSIFICATION_TYPE = U
NORAD_CAT_ID   = 68019
ELEMENT_SET_NO = 999
REV_AT_EPOCH   = 310
BSTAR          = -.33779048E-2
MEAN_MOTION_DOT = -.1360138E-1
MEAN_MOTION_DDOT = .5541527E-3

CCSDS_OMM_VERS = 2.0
CREATION_DATE  = 
ORIGINATOR     = 

OBJECT_NAME    = STARLINK-36928
OBJECT_ID      = 2026-040F
CENTER_NAME    = EARTH
REF_FRAME      = TEME
TIME_SYSTEM    = UTC
MEAN_ELEMENT_THEORY = SGP/SGP4

EPOCH          = 2026-03-13T22:00:01.999584
MEAN_MOTION    = 15.95874313
ECCENTRICITY   = .00011063
INCLINATION    = 97.2723
RA_OF_ASC_NODE = 21.4660
ARG_OF_PERICENTER = 76.4480
MEAN_ANOMALY   = 277.1669

EPHEMERIS_TYPE = 0
CLASSIFICATION_TYPE = U
NORAD_CAT_ID   = 68020
ELEMENT_SET_NO = 999
REV_AT_EPOCH   = 310
BSTAR          = -.34097803E-2
MEAN_MOTION_DOT = -.1368185E-1
MEAN_MOTION_DDOT = .55985616E-3

CCSDS_OMM_VERS = 2.0
CREATION_DATE  = 
ORIGINATOR     = 

OBJECT_NAME    = STARLINK-36858
OBJECT_ID      = 2026-040G
CENTER_NAME    = EARTH
REF_FRAME      = TEME
TIME_SYSTEM    = UTC
MEAN_ELEMENT_THEORY = SGP/SGP4

EPOCH          = 2026-03-14T00:35:42.650016
MEAN_MOTION    = 16.09264824
ECCENTRICITY   = .0000896
INCLINATION    = 97.2744
RA_OF_ASC_NODE = 21.6279
ARG_OF_PERICENTER = 159.5942
MEAN_ANOMALY   = 200.5377

EPHEMERIS_TYPE = 0
CLASSIFICATION_TYPE = U
NORAD_CAT_ID   = 68021
ELEMENT_SET_NO = 999
REV_AT_EPOCH   = 203
BSTAR          = .41588E-3
MEAN_MOTION_DOT = .367311E-2
MEAN_MOTION_DDOT = .67816E-4

CCSDS_OMM_VERS = 2.0
CREATION_DATE  = 
ORIGINATOR     = 

OBJECT_NAME    = STARLINK-36916
OBJECT_ID      = 2026-040H
CENTER_NAME    = EARTH
REF_FRAME      = TEME
TIME_SYSTEM    = UTC
MEAN_ELEMENT_THEORY = SGP/SGP4

EPOCH          = 2026-03-13T22:00:01.999584
MEAN_MOTION    = 15.96087202
ECCENTRICITY   = .00009495
INCLINATION    = 97.2726
RA_OF_ASC_NODE = 21.4713
ARG_OF_PERICENTER = 83.1913
MEAN_ANOMALY   = 281.8753

EPHEMERIS_TYPE = 0
CLASSIFICATION_TYPE = U
NORAD_CAT_ID   = 68022
ELEMENT_SET_NO = 999
REV_AT_EPOCH   = 310
BSTAR          = -.33689755E-2
MEAN_MOTION_DOT = -.1367362E-1
MEAN_MOTION_DDOT = .56048851E-3

